[
    {
        "CCSDS_OMM_VERS": "3.0",
        "COMMENT": "GENERATED VIA SPACE-TRACK.ORG API",
        "CREATION_DATE": "2025-03-02T22:46:31",
        "ORIGINATOR": "18 SPCS",
        "OBJECT_NAME": "BEIDOU 3M18",
        "OBJECT_ID": "2018-093B",
        "CENTER_NAME": "EARTH",
        "REF_FRAME": "TEME",
        "TIME_SYSTEM": "UTC",
        "MEAN_ELEMENT_THEORY": "SGP4",
        "EPOCH": "2025-03-02T17:24:31.128192",
        "MEAN_MOTION": "1.86229527",
        "ECCENTRICITY": "0.00057470",
        "INCLINATION": "54.1933",
        "RA_OF_ASC_NODE": "198.2828",
        "ARG_OF_PERICENTER": "333.7206",
        "MEAN_ANOMALY": "26.2071",
        "EPHEMERIS_TYPE": "0",
        "CLASSIFICATION_TYPE": "U",
        "NORAD_CAT_ID": "43707",
        "ELEMENT_SET_NO": "999",
        "REV_AT_EPOCH": "4275",
        "BSTAR": "0.00000000000000",
        "MEAN_MOTION_DOT": "0.00000045",
        "MEAN_MOTION_DDOT": "0.0000000000000",
        "SEMIMAJOR_AXIS": "27906.336",
        "PERIOD": "773.239",
        "APOAPSIS": "21544.238",
        "PERIAPSIS": "21512.163",
        "OBJECT_TYPE": "PAYLOAD",
        "RCS_SIZE": "LARGE",
        "COUNTRY_CODE": "PRC",
        "LAUNCH_DATE": "2018-11-18",
        "SITE": "XSC",
        "DECAY_DATE": null,
        "FILE": "4657300",
        "GP_ID": "282104604",
        "TLE_LINE0": "0 BEIDOU 3M18",
        "TLE_LINE1": "1 43707U 18093B   25061.72536028  .00000045  00000-0  00000+0 0  9997",
        "TLE_LINE2": "2 43707  54.1933 198.2828 0005747 333.7206  26.2071  1.86229527 42751"
    }
]